NORAD_CAT_ID,OBJECT_NAME,OBJECT_TYPE,EPOCH,MEAN_MOTION,ECCENTRICITY,INCLINATION,RA_OF_ASC_NODE,ARG_OF_PERICENTER,MEAN_ANOMALY,BSTAR,MEAN_MOTION_DOT,MEAN_MOTION_DDOT,TLE_LINE0,TLE_LINE1,TLE_LINE2,SEMIMAJOR_AXIS,PERIOD,APOGEE,PERIGEE,DECAYED
56449.0,STARLINK-5993,PAYLOAD,2024-03-16 13:29:14,14.98328623,0.0002717,70.0011,167.9171,258.9792,101.1061,-3.4895e-05,-5.09e-06,0.0,0 STARLINK-5993,1 56449U 23064B   24076.56197744 -.00000509  00000-0 -34895-4 0  9994,2 56449  70.0011 167.9171 0002717 258.9792 101.1061 14.98328623 46927,6950.197,96.107,573.951,570.174,0.0
56449.0,STARLINK-5993,PAYLOAD,2024-03-16 15:05:22,14.98329611,0.0002552,70.001,167.7488,249.2032,110.8854,-3.319e-05,-4.89e-06,0.0,0 STARLINK-5993,1 56449U 23064B   24076.62873675 -.00000489  00000-0 -33190-4 0  9999,2 56449  70.0010 167.7488 0002552 249.2032 110.8854 14.98329611 46938,6950.194,96.107,573.833,570.285,0.0
56449.0,STARLINK-5993,PAYLOAD,2024-03-17 05:30:36,14.9831497,0.0002034,70.0032,166.2358,238.1943,121.9018,-9.5229e-06,-2.06e-06,0.0,0 STARLINK-5993,1 56449U 23064B   24077.22958731 -.00000206  00000-0 -95229-5 0  9992,2 56449  70.0032 166.2358 0002034 238.1943 121.9018 14.98314970 47382,6950.239,96.108,573.518,570.691,0.0
56449.0,STARLINK-5993,PAYLOAD,2024-03-17 11:55:09,14.98311349,0.0002423,70.002,165.5613,250.9778,109.1119,-8.2905e-05,-1.081e-05,0.0,0 STARLINK-5993,1 56449U 23064B   24077.49663533 -.00001081  00000-0 -82905-4 0  9992,2 56449  70.0020 165.5613 0002423 250.9778 109.1119 14.98311349 47427,6950.251,96.108,573.8,570.432,0.0
56449.0,STARLINK-5993,PAYLOAD,2024-03-17 13:31:17,14.98309493,0.000253,70.0014,165.3926,253.7756,106.3124,-0.00011644,-1.481e-05,0.0,0 STARLINK-5993,1 56449U 23064B   24077.56339850 -.00001481  00000-0 -11644-3 0  9997,2 56449  70.0014 165.3926 0002530 253.7756 106.3124 14.98309493 47074,6950.256,96.108,573.88,570.363,0.0
56449.0,STARLINK-5993,PAYLOAD,2024-03-17 15:07:25,14.9830942,0.000257,70.0013,165.2242,255.7761,104.3113,-0.00011598,-1.476e-05,0.0,0 STARLINK-5993,1 56449U 23064B   24077.63015942 -.00001476  00000-0 -11598-3 0  9990,2 56449  70.0013 165.2242 0002570 255.7761 104.3113 14.98309420 47082,6950.257,96.108,573.908,570.335,0.0
56449.0,STARLINK-5993,PAYLOAD,2024-03-18 11:57:09,14.98324892,0.0003539,69.9998,163.0363,277.4772,82.5984,2.3026e-05,1.82e-06,0.0,0 STARLINK-5993,1 56449U 23064B   24078.49803184  .00000182  00000-0  23026-4 0  9999,2 56449  69.9998 163.0363 0003539 277.4772  82.5984 14.98324892 47577,6950.209,96.107,574.533,569.614,0.0
56449.0,STARLINK-5993,PAYLOAD,2024-03-18 15:09:25,14.98329835,0.0003061,70.0004,162.6999,270.1761,89.9048,8.245e-05,8.91e-06,0.0,0 STARLINK-5993,1 56449U 23064B   24078.63154700  .00000891  00000-0  82450-4 0  9991,2 56449  70.0004 162.6999 0003061 270.1761  89.9048 14.98329835 47592,6950.193,96.107,574.186,569.931,0.0
56449.0,STARLINK-5993,PAYLOAD,2024-03-19 11:59:08,14.98343154,0.0003299,69.9998,160.5102,276.0126,84.0657,0.00033832,3.947e-05,0.0,0 STARLINK-5993,1 56449U 23064B   24079.49940968  .00003947  00000-0  33832-3 0  9999,2 56449  69.9998 160.5102 0003299 276.0126  84.0657 14.98343154 47364,6950.152,96.106,574.31,569.724,0.0
56449.0,STARLINK-5993,PAYLOAD,2024-03-19 13:35:16,14.98348673,0.0003167,70.0,160.3424,274.0271,86.0526,0.00040048,4.691e-05,0.0,0 STARLINK-5993,1 56449U 23064B   24079.56616369  .00004691  00000-0  40048-3 0  9996,2 56449  70.0000 160.3424 0003167 274.0271  86.0526 14.98348673 47738,6950.135,96.106,574.201,569.799,0.0
56449.0,STARLINK-5993,PAYLOAD,2024-03-20 10:25:03,14.98330335,0.0003316,69.9996,158.1537,277.761,82.3173,-9.9148e-05,-1.276e-05,0.0,0 STARLINK-5993,1 56449U 23064B   24080.43406550 -.00001276  00000-0 -99148-4 0  9997,2 56449  69.9996 158.1537 0003316 277.7610  82.3173 14.98330335 47869,6950.192,96.107,574.362,569.752,0.0
56449.0,STARLINK-5993,PAYLOAD,2024-03-20 13:37:19,14.98333013,0.0003296,69.9995,157.8165,279.2439,80.8347,-5.9771e-05,-8.06e-06,0.0,0 STARLINK-5993,1 56449U 23064B   24080.56758261 -.00000806  00000-0 -59771-4 0  9996,2 56449  69.9995 157.8165 0003296 279.2439  80.8347 14.98333013 47529,6950.184,96.107,574.339,569.758,0.0
56449.0,STARLINK-5993,PAYLOAD,2024-03-20 15:13:27,14.98333903,0.0003183,69.9998,157.6488,275.8456,84.234,-4.1109e-05,-5.84e-06,0.0,0 STARLINK-5993,1 56449U 23064B   24080.63434113 -.00000584  00000-0 -41109-4 0  9990,2 56449  69.9998 157.6488 0003183 275.8456  84.2340 14.98333903 47534,6950.181,96.107,574.258,569.834,0.0
56449.0,STARLINK-5993,PAYLOAD,2024-03-21 04:02:31,14.98340033,0.0003081,69.9999,156.302,274.8932,85.1875,-0.00020319,-2.517e-05,0.0,0 STARLINK-5993,1 56449U 23064B   24081.16841971 -.00002517  00000-0 -20319-3 0  9990,2 56449  69.9999 156.3020 0003081 274.8932  85.1875 14.98340033 47971,6950.162,96.106,574.168,569.886,0.0
56449.0,STARLINK-5993,PAYLOAD,2024-03-21 12:03:11,14.98345668,0.0002937,70.0002,155.4615,270.6758,89.4064,-0.00012216,-1.551e-05,0.0,0 STARLINK-5993,1 56449U 23064B   24081.50221125 -.00001551  00000-0 -12216-3 0  9995,2 56449  70.0002 155.4615 0002937 270.6758  89.4064 14.98345668 48021,6950.144,96.106,574.051,569.968,0.0
56449.0,STARLINK-5993,PAYLOAD,2024-03-21 13:39:19,14.98346273,0.0002949,70.0001,155.293,271.02,89.0621,-0.00011053,-1.412e-05,0.0,0 STARLINK-5993,1 56449U 23064B   24081.56897001 -.00001412  00000-0 -11053-3 0  9997,2 56449  70.0001 155.2930 0002949 271.0200  89.0621 14.98346273 47676,6950.143,96.106,574.057,569.958,0.0
56449.0,STARLINK-5993,PAYLOAD,2024-03-22 04:04:31,14.98327193,0.0002638,70.0009,153.7795,264.6121,95.4737,9.693e-05,1.064e-05,0.0,0 STARLINK-5993,1 56449U 23064B   24082.16981342  .00001064  00000-0  96930-4 0  9995,2 56449  70.0009 153.7795 0002638 264.6121  95.4737 14.98327193 48121,6950.202,96.107,573.9,570.233,0.0
56449.0,STARLINK-5993,PAYLOAD,2024-03-22 13:41:20,14.98329882,0.0002614,70.0009,152.7698,264.2021,95.884,0.00011569,1.288e-05,0.0,0 STARLINK-5993,1 56449U 23064B   24082.57037171  .00001288  00000-0  11569-3 0  9994,2 56449  70.0009 152.7698 0002614 264.2021  95.8840 14.98329882 47823,6950.193,96.107,573.875,570.241,0.0
56449.0,STARLINK-5993,PAYLOAD,2024-03-23 05:42:41,14.98321284,0.0002455,70.0012,151.0877,259.2157,100.8726,-8.8236e-06,-1.98e-06,0.0,0 STARLINK-5993,1 56449U 23064B   24083.23798183 -.00000198  00000-0 -88236-5 0  9993,2 56449  70.0012 151.0877 0002455 259.2157 100.8726 14.98321284 48284,6950.22,96.108,573.791,570.379,0.0
56449.0,STARLINK-5993,PAYLOAD,2024-03-23 13:43:22,14.98321138,0.0002556,70.0009,150.2455,263.2289,96.8579,-9.5478e-05,-1.232e-05,0.0,0 STARLINK-5993,1 56449U 23064B   24083.57178578 -.00001232  00000-0 -95478-4 0  9995,2 56449  70.0009 150.2455 0002556 263.2289  96.8579 14.98321138 47979,6950.22,96.108,573.862,570.309,0.0
56449.0,STARLINK-5993,PAYLOAD,2024-03-24 04:08:33,14.98342835,0.0003067,69.9997,148.7291,275.0972,84.9836,9.3629e-05,1.025e-05,0.0,0 STARLINK-5993,1 56449U 23064B   24084.17260623  .00001025  00000-0  93629-4 0  9999,2 56449  69.9997 148.7291 0003067 275.0972  84.9836 14.98342835 48422,6950.153,96.106,574.15,569.887,0.0
56449.0,STARLINK-5993,PAYLOAD,2024-03-24 12:09:11,14.98362733,0.0002745,70.0002,147.8881,271.2358,88.8486,0.00032492,3.789e-05,0.0,0 STARLINK-5993,1 56449U 23064B   24084.50638347  .00003789  00000-0  32492-3 0  9997,2 56449  70.0002 147.8881 0002745 271.2358  88.8486 14.98362733 48473,6950.092,96.105,573.864,570.049,0.0
56449.0,STARLINK-5993,PAYLOAD,2024-03-24 13:45:19,14.98365499,0.0002687,70.0006,147.7205,269.3124,90.7727,0.0003576,4.18e-05,0.0,0 STARLINK-5993,1 56449U 23064B   24084.57313981  .00004180  00000-0  35760-3 0  9995,2 56449  70.0006 147.7205 0002687 269.3124  90.7727 14.98365499 48124,6950.083,96.105,573.816,570.081,0.0
56449.0,STARLINK-5993,PAYLOAD,2024-03-24 21:46:01,14.9833062,0.0003321,69.9988,146.8763,269.175,90.9029,0.00015155,1.716e-05,0.0,0 STARLINK-5993,1 56449U 23064B   24084.90696416  .00001716  00000-0  15155-3 0  9997,2 56449  69.9988 146.8763 0003321 269.1750  90.9029 14.98330620 48178,6950.191,96.107,574.364,569.748,0.0
56449.0,STARLINK-5993,PAYLOAD,2024-03-25 05:46:42,14.98321808,0.0002831,69.9983,146.0303,265.2062,94.8774,1.9713e-05,1.42e-06,0.0,0 STARLINK-5993,1 56449U 23064B   24085.24077369  .00000142  00000-0  19713-4 0  9992,2 56449  69.9983 146.0303 0002831 265.2062  94.8774 14.98321808 48586,6950.218,96.108,574.051,570.116,0.0
56449.0,STARLINK-5993,PAYLOAD,2024-03-25 12:11:15,14.98316487,0.000295,69.9996,145.3612,264.6005,95.4818,-4.6874e-05,-6.52e-06,0.0,0 STARLINK-5993,1 56449U 23064B   24085.50782154 -.00000652  00000-0 -46874-4 0  9992,2 56449  69.9996 145.3612 0002950 264.6005  95.4818 14.98316487 48625,6950.235,96.108,574.15,570.049,0.0
56449.0,STARLINK-5993,PAYLOAD,2024-03-25 13:47:23,14.98317356,0.0002926,69.9997,145.1929,264.3981,95.6845,-3.3807e-05,-4.96e-06,0.0,0 STARLINK-5993,1 56449U 23064B   24085.57458115 -.00000496  00000-0 -33807-4 0  9994,2 56449  69.9997 145.1929 0002926 264.3981  95.6845 14.98317356 48277,6950.232,96.108,574.131,570.063,0.0
56449.0,STARLINK-5993,PAYLOAD,2024-03-26 12:13:17,14.98327848,0.0002977,69.9995,142.838,264.6809,95.4011,-0.00039998,-4.862e-05,0.0,0 STARLINK-5993,1 56449U 23064B   24086.50922809 -.00004862  00000-0 -39998-3 0  9991,2 56449  69.9995 142.8380 0002977 264.6809  95.4011 14.98327848 48773,6950.2,96.107,574.134,569.995,0.0
56449.0,STARLINK-5993,PAYLOAD,2024-03-26 13:49:25,14.98327789,0.0002923,69.9995,142.6696,263.387,96.6956,-0.00040171,-4.882e-05,0.0,0 STARLINK-5993,1 56449U 23064B   24086.57598834 -.00004882  00000-0 -40171-3 0  9992,2 56449  69.9995 142.6696 0002923 263.3870  96.6956 14.98327789 48423,6950.2,96.107,574.096,570.033,0.0
56449.0,STARLINK-5993,PAYLOAD,2024-03-27 12:15:18,14.98318397,0.0002822,70.0003,140.312,265.6976,94.386,9.7971e-05,1.076e-05,0.0,0 STARLINK-5993,1 56449U 23064B   24087.51062906  .00001076  00000-0  97971-4 0  9994,2 56449  70.0003 140.3120 0002822 265.6976  94.3860 14.98318397 48922,6950.229,96.108,574.055,570.132,0.0
